      2.10          N: GNSS NAV DATA                        RINEX VERSION / TYPE
fic2rin                                 07/27/2020 00:17:34 PGM / RUN BY / DATE
                                                            END OF HEADER
20 20  7 26  8  0  0.0 5.272068083286e-04-1.136868377216e-13 0.000000000000e+00
    9.700000000000e+01-2.525000000000e+01 5.283434361963e-09-2.980277516704e+00
   -1.145526766777e-06 5.362936644815e-03 4.356727004051e-06 5.153655254364e+03
    2.880000000000e+04-5.401670932770e-08 2.853468559173e+00 6.332993507385e-08
    9.349657579681e-01 2.790312500000e+02 2.681494982984e+00-8.560713730946e-09
    8.571785620706e-11 1.000000000000e+00 2.116000000000e+03 0.000000000000e+00
    3.400000000000e+00 0.000000000000e+00-8.847564458847e-09 9.700000000000e+01
    2.160000000000e+04 4.000000000000e+00
18 20  7 26  8  0  0.0 2.553579397500e-04 8.981260180008e-12 0.000000000000e+00
    5.900000000000e+01 2.865625000000e+01 4.428041588563e-09-1.927951410183e+00
    1.523643732071e-06 8.045660797507e-04 7.649883627892e-06 5.153714879990e+03
    2.880000000000e+04 1.303851604462e-08 1.965520939997e+00 1.862645149231e-09
    9.643583496018e-01 2.345312500000e+02 2.625230199832e+00-8.106766250783e-09
    3.167989102319e-10 1.000000000000e+00 2.116000000000e+03 0.000000000000e+00
    2.400000000000e+00 0.000000000000e+00-7.916241884232e-09 8.270000000000e+02
    2.160000000000e+04 4.000000000000e+00
14 20  7 26  8  0  0.0 4.216097295284e-06 2.955857780762e-12 0.000000000000e+00
    9.500000000000e+01-2.143750000000e+01 4.506973447820e-09-5.152433360559e-01
   -1.056119799614e-06 1.155750663020e-02 1.123361289501e-05 5.153676467896e+03
    2.880000000000e+04-1.061707735062e-07-2.167000685854e+00 1.713633537292e-07
    9.603856375624e-01 1.690000000000e+02-1.908113737785e+00-8.159982753178e-09
    7.821754378894e-11 1.000000000000e+00 2.116000000000e+03 0.000000000000e+00
    2.400000000000e+00 6.300000000000e+01-9.778887033463e-09 9.500000000000e+01
    2.160000000000e+04 4.000000000000e+00
23 20  7 26  8  0  0.0 1.754844561219e-05 1.477928890381e-11 0.000000000000e+00
    1.490000000000e+02-3.728125000000e+01 4.707696094439e-09-2.057559575147e+00
   -1.834705471992e-06 8.947418536991e-04 4.800036549568e-06 5.153629215240e+03
    2.880000000000e+04 1.676380634308e-08 2.964412569511e+00 1.303851604462e-08
    9.614450594287e-01 2.836875000000e+02 1.613575827224e+00-8.318203629427e-09
    2.821546100149e-11 1.000000000000e+00 2.116000000000e+03 0.000000000000e+00
    3.400000000000e+00 6.300000000000e+01-5.587935447693e-09 1.490000000000e+02
    2.160000000000e+04 4.000000000000e+00
15 20  7 26  7 59 44.0-2.149706706405e-04 2.614797267597e-12 0.000000000000e+00
    1.000000000000e+00-4.931250000000e+01 5.219503127542e-09-1.158360898792e+00
   -2.339482307434e-06 1.249107473996e-02 1.021288335323e-05 5.153722599030e+03
    2.878400000000e+04 2.961605787277e-07-2.354474516926e+00 1.303851604462e-07
    9.283795764272e-01 1.593125000000e+02 8.949353117508e-01-8.412493271255e-09
   -1.178620522847e-10 1.000000000000e+00 2.116000000000e+03 0.000000000000e+00
    2.400000000000e+00 0.000000000000e+00-1.071020960808e-08 1.000000000000e+00
    2.220000000000e+04 4.000000000000e+00
20 20  7 26  7 59 44.0 5.272058770061e-04-1.136868377216e-13 0.000000000000e+00
    3.000000000000e+00-2.525000000000e+01 5.283434361963e-09-2.982611510336e+00
   -1.145526766777e-06 5.362935247831e-03 4.356727004051e-06 5.153655250549e+03
    2.878400000000e+04-5.401670932770e-08 2.853468693762e+00 6.332993507385e-08
    9.349657535794e-01 2.790312500000e+02 2.681495237531e+00-8.560713730946e-09
    8.571785620706e-11 1.000000000000e+00 2.116000000000e+03 0.000000000000e+00
    2.400000000000e+00 0.000000000000e+00-8.847564458847e-09 3.000000000000e+00
    2.220000000000e+04 4.000000000000e+00
19 20  7 26  7 59 44.0-1.269886270165e-04 5.115907697473e-12 0.000000000000e+00
    3.000000000000e+00-1.371875000000e+01 3.890162040864e-09 2.214938512965e+00
   -7.767230272293e-07 9.428725927137e-03 1.038610935211e-05 5.153699516296e+03
    2.878400000000e+04 1.490116119385e-07 9.973424036572e-01-7.078051567078e-08
    9.819729994827e-01 1.846875000000e+02 1.678511883203e+00-7.687820228571e-09
   -3.453715289676e-10 1.000000000000e+00 2.116000000000e+03 0.000000000000e+00
    2.400000000000e+00 0.000000000000e+00-1.536682248116e-08 3.000000000000e+00
    2.226000000000e+04 4.000000000000e+00
 3 20  7 26  7 59 44.0-2.511288039386e-04-1.136868377216e-11 0.000000000000e+00
    1.000000000000e+00-5.250000000000e+01 4.485186826034e-09 2.736640352924e+00
   -2.723187208176e-06 3.109870245680e-03 5.448237061501e-06 5.153778978348e+03
    2.878400000000e+04 9.313225746155e-09 2.989261039155e+00-4.097819328308e-08
    9.666016291463e-01 2.774687500000e+02 8.010258984239e-01-8.185340952306e-09
   -2.535819912792e-11 1.000000000000e+00 2.116000000000e+03 0.000000000000e+00
    2.400000000000e+00 0.000000000000e+00 1.862645149231e-09 1.000000000000e+00
    2.403000000000e+04 4.000000000000e+00
 3 20  7 26  9 59 44.0-2.512107603252e-04-1.136868377216e-11 0.000000000000e+00
    7.000000000000e+00-4.921875000000e+01 4.481258090958e-09-2.496418210479e+00
   -2.454966306686e-06 3.109403070994e-03 5.483627319336e-06 5.153779863358e+03
    3.598400000000e+04-3.725290298462e-09 2.989202421491e+00-4.470348358154e-08
    9.666014696882e-01 2.769375000000e+02 8.010150377201e-01-8.161054226381e-09
   -5.964534161075e-11 1.000000000000e+00 2.116000000000e+03 0.000000000000e+00
    2.400000000000e+00 0.000000000000e+00 1.862645149231e-09 7.000000000000e+00
    2.880000000000e+04 4.000000000000e+00
19 20  7 26  9 59 44.0-1.269518397748e-04 5.115907697473e-12 0.000000000000e+00
    1.400000000000e+01-5.500000000000e+00 3.964450849577e-09-3.018148215999e+00
   -2.309679985046e-07 9.429201832972e-03 1.019053161144e-05 5.153699127197e+03
    3.598400000000e+04 2.216547727585e-07 9.972861910300e-01 1.210719347000e-07
    9.819708270493e-01 1.919375000000e+02 1.678573799748e+00-7.714249900901e-09
   -1.946509651369e-10 1.000000000000e+00 2.116000000000e+03 0.000000000000e+00
    2.400000000000e+00 0.000000000000e+00-1.536682248116e-08 1.400000000000e+01
    2.880000000000e+04 4.000000000000e+00
20 20  7 26  9 59 44.0 5.272054113448e-04-1.136868377216e-13 0.000000000000e+00
    1.400000000000e+01-2.743750000000e+01 5.301292248672e-09-1.932548778002e+00
   -1.356005668640e-06 5.364042939618e-03 5.051493644714e-06 5.153652761459e+03
    3.598400000000e+04-1.024454832077e-07 2.853406728941e+00 9.313225746155e-09
    9.349661383268e-01 2.697812500000e+02 2.681631237711e+00-8.624644965367e-09
    1.003613233091e-10 1.000000000000e+00 2.116000000000e+03 0.000000000000e+00
    2.400000000000e+00 0.000000000000e+00-8.847564458847e-09 1.400000000000e+01
    2.880000000000e+04 4.000000000000e+00
15 20  7 26  9 59 44.0-2.149520441890e-04 2.614797267597e-12 0.000000000000e+00
    3.600000000000e+01-4.153125000000e+01 5.203788187237e-09-1.081891278600e-01
   -2.060085535049e-06 1.249197544530e-02 1.045130193233e-05 5.153724212646e+03
    3.598400000000e+04 4.656612873077e-08-2.354536004835e+00 1.899898052216e-07
    9.283779306444e-01 1.618125000000e+02 8.949196570644e-01-8.586786245542e-09
   -1.332198348551e-10 1.000000000000e+00 2.116000000000e+03 0.000000000000e+00
    2.400000000000e+00 0.000000000000e+00-1.071020960808e-08 3.600000000000e+01
    2.880000000000e+04 4.000000000000e+00
 2 20  7 26 10  0  0.0-4.929024726152e-04-5.570655048359e-12 0.000000000000e+00
    9.000000000000e+01 4.650000000000e+01 4.670908847816e-09-1.166727988527e+00
    2.587214112282e-06 1.974779367447e-02 8.037313818932e-06 5.153746791840e+03
    3.600000000000e+04-1.955777406693e-07 1.871576242549e+00 4.190951585770e-07
    9.596647027554e-01 2.297812500000e+02-1.615282439660e+00-8.495353865588e-09
    2.517962026082e-10 1.000000000000e+00 2.116000000000e+03 0.000000000000e+00
    2.400000000000e+00 0.000000000000e+00-1.769512891769e-08 9.000000000000e+01
    2.880000000000e+04 4.000000000000e+00
 1 20  7 26 10  0  0.0 2.900743857026e-05 3.069544618484e-12 0.000000000000e+00
    7.400000000000e+01 2.765625000000e+01 4.025524822124e-09-1.414507337554e+00
    1.469627022743e-06 1.005552452989e-02 7.307156920433e-06 5.153707170486e+03
    3.600000000000e+04 2.197921276093e-07 1.949119913788e+00-2.421438694000e-08
    9.807428901866e-01 2.502500000000e+02 8.110022156004e-01-7.902114869088e-09
    1.950081228711e-10 1.000000000000e+00 2.116000000000e+03 0.000000000000e+00
    2.400000000000e+00 0.000000000000e+00 5.122274160385e-09 7.400000000000e+01
    2.880000000000e+04 4.000000000000e+00
 5 20  7 26 10  0  0.0-1.745345070958e-05-7.958078640513e-13 0.000000000000e+00
    6.100000000000e+01-4.484375000000e+01 4.953063457831e-09 1.514087749889e+00
   -2.333894371986e-06 6.043812027201e-03 5.600973963737e-06 5.153701171875e+03
    3.600000000000e+04-1.024454832077e-07 2.956504460084e+00-2.421438694000e-08
    9.535037461497e-01 2.717500000000e+02 8.310871387095e-01-8.483924818094e-09
   -1.396486740707e-10 1.000000000000e+00 2.116000000000e+03 0.000000000000e+00
    2.400000000000e+00 0.000000000000e+00-1.117587089539e-08 6.100000000000e+01
    2.880000000000e+04 4.000000000000e+00
 8 20  7 26 10  0  0.0-4.226854071021e-05-1.250555214938e-12 0.000000000000e+00
    3.500000000000e+01-2.140625000000e+01 4.323751530178e-09 8.745129739013e-01
   -1.041218638420e-06 5.365097080357e-03 9.158626198769e-06 5.153701553345e+03
    3.600000000000e+04 4.097819328308e-08 8.781933129850e-01 2.421438694000e-08
    9.694143919777e-01 2.032500000000e+02-5.743606704845e-02-8.045335120501e-09
   -3.207276453081e-10 1.000000000000e+00 2.116000000000e+03 0.000000000000e+00
    2.400000000000e+00 0.000000000000e+00 5.122274160385e-09 3.500000000000e+01
    2.880000000000e+04 4.000000000000e+00
